CCSDS_OMM_VERS = 2.0
CREATION_DATE  = 
ORIGINATOR     = 

OBJECT_NAME    = KUIPER-00177
OBJECT_ID      = 2026-030C
CENTER_NAME    = EARTH
REF_FRAME      = TEME
TIME_SYSTEM    = UTC
MEAN_ELEMENT_THEORY = SGP/SGP4

EPOCH          = 2026-03-05T18:45:25.417152
MEAN_MOTION    = 15.36355024
ECCENTRICITY   = .0001156
INCLINATION    = 51.8828
RA_OF_ASC_NODE = 237.8821
ARG_OF_PERICENTER = 18.0817
MEAN_ANOMALY   = 342.0211

EPHEMERIS_TYPE = 0
CLASSIFICATION_TYPE = U
NORAD_CAT_ID   = 67766
ELEMENT_SET_NO = 999
REV_AT_EPOCH   = 449
BSTAR          = .9295E-3
MEAN_MOTION_DOT = .33225E-3
MEAN_MOTION_DDOT = 0

CCSDS_OMM_VERS = 2.0
CREATION_DATE  = 
ORIGINATOR     = 

OBJECT_NAME    = KUIPER-00178
OBJECT_ID      = 2026-030D
CENTER_NAME    = EARTH
REF_FRAME      = TEME
TIME_SYSTEM    = UTC
MEAN_ELEMENT_THEORY = SGP/SGP4

EPOCH          = 2026-03-05T19:05:49.072704
MEAN_MOTION    = 15.35365387
ECCENTRICITY   = .000627
INCLINATION    = 51.8838
RA_OF_ASC_NODE = 237.9741
ARG_OF_PERICENTER = 34.8327
MEAN_ANOMALY   = 325.3068

EPHEMERIS_TYPE = 0
CLASSIFICATION_TYPE = U
NORAD_CAT_ID   = 67767
ELEMENT_SET_NO = 999
REV_AT_EPOCH   = 449
BSTAR          = .11114E-2
MEAN_MOTION_DOT = .38597E-3
MEAN_MOTION_DDOT = 0

CCSDS_OMM_VERS = 2.0
CREATION_DATE  = 
ORIGINATOR     = 

OBJECT_NAME    = KUIPER-00180
OBJECT_ID      = 2026-030E
CENTER_NAME    = EARTH
REF_FRAME      = TEME
TIME_SYSTEM    = UTC
MEAN_ELEMENT_THEORY = SGP/SGP4

EPOCH          = 2026-03-05T18:17:04.170048
MEAN_MOTION    = 15.32117434
ECCENTRICITY   = .0014404
INCLINATION    = 51.8804
RA_OF_ASC_NODE = 238.4805
ARG_OF_PERICENTER = 57.5578
MEAN_ANOMALY   = 302.6798

EPHEMERIS_TYPE = 0
CLASSIFICATION_TYPE = U
NORAD_CAT_ID   = 67768
ELEMENT_SET_NO = 999
REV_AT_EPOCH   = 448
BSTAR          = -.12011E-3
MEAN_MOTION_DOT = -.4168E-4
MEAN_MOTION_DDOT = 0

CCSDS_OMM_VERS = 2.0
CREATION_DATE  = 
ORIGINATOR     = 

OBJECT_NAME    = KUIPER-00197
OBJECT_ID      = 2026-030F
CENTER_NAME    = EARTH
REF_FRAME      = TEME
TIME_SYSTEM    = UTC
MEAN_ELEMENT_THEORY = SGP/SGP4

EPOCH          = 2026-03-05T18:48:33.447744
MEAN_MOTION    = 15.36228301
ECCENTRICITY   = .0001391
INCLINATION    = 51.8832
RA_OF_ASC_NODE = 237.8960
ARG_OF_PERICENTER = 52.3520
MEAN_ANOMALY   = 307.7592

EPHEMERIS_TYPE = 0
CLASSIFICATION_TYPE = U
NORAD_CAT_ID   = 67769
ELEMENT_SET_NO = 999
REV_AT_EPOCH   = 449
BSTAR          = .92657E-3
MEAN_MOTION_DOT = .32982E-3
MEAN_MOTION_DDOT = 0

CCSDS_OMM_VERS = 2.0
CREATION_DATE  = 
ORIGINATOR     = 

OBJECT_NAME    = KUIPER-00198
OBJECT_ID      = 2026-030G
CENTER_NAME    = EARTH
REF_FRAME      = TEME
TIME_SYSTEM    = UTC
MEAN_ELEMENT_THEORY = SGP/SGP4

EPOCH          = 2026-03-05T18:55:41.466432
MEAN_MOTION    = 15.35870690
ECCENTRICITY   = .0003403
INCLINATION    = 51.8813
RA_OF_ASC_NODE = 237.9228
ARG_OF_PERICENTER = 36.5012
MEAN_ANOMALY   = 323.6206

EPHEMERIS_TYPE = 0
CLASSIFICATION_TYPE = U
NORAD_CAT_ID   = 67770
ELEMENT_SET_NO = 999
REV_AT_EPOCH   = 449
BSTAR          = .89549E-3
MEAN_MOTION_DOT = .31493E-3
MEAN_MOTION_DDOT = 0

CCSDS_OMM_VERS = 2.0
CREATION_DATE  = 
ORIGINATOR     = 

OBJECT_NAME    = KUIPER-00199
OBJECT_ID      = 2026-030H
CENTER_NAME    = EARTH
REF_FRAME      = TEME
TIME_SYSTEM    = UTC
MEAN_ELEMENT_THEORY = SGP/SGP4

EPOCH          = 2026-03-05T17:53:51.295776
MEAN_MOTION    = 15.34187224
ECCENTRICITY   = .0010385
INCLINATION    = 51.8813
RA_OF_ASC_NODE = 238.3778
ARG_OF_PERICENTER = 49.7237
MEAN_ANOMALY   = 310.4654

EPHEMERIS_TYPE = 0
CLASSIFICATION_TYPE = U
NORAD_CAT_ID   = 67771
ELEMENT_SET_NO = 999
REV_AT_EPOCH   = 448
BSTAR          = .75983E-3
MEAN_MOTION_DOT = .25269E-3
MEAN_MOTION_DDOT = 0

CCSDS_OMM_VERS = 2.0
CREATION_DATE  = 
ORIGINATOR     = 

OBJECT_NAME    = KUIPER-00200
OBJECT_ID      = 2026-030J
CENTER_NAME    = EARTH
REF_FRAME      = TEME
TIME_SYSTEM    = UTC
MEAN_ELEMENT_THEORY = SGP/SGP4

EPOCH          = 2026-03-05T20:09:59.137056
MEAN_MOTION    = 15.36884427
ECCENTRICITY   = .0001234
INCLINATION    = 51.8806
RA_OF_ASC_NODE = 237.5237
ARG_OF_PERICENTER = 221.9885
MEAN_ANOMALY   = 138.1007

EPHEMERIS_TYPE = 0
CLASSIFICATION_TYPE = U
NORAD_CAT_ID   = 67772
ELEMENT_SET_NO = 999
REV_AT_EPOCH   = 450
BSTAR          = .1023E-2
MEAN_MOTION_DOT = .37261E-3
MEAN_MOTION_DDOT = 0

CCSDS_OMM_VERS = 2.0
CREATION_DATE  = 
ORIGINATOR     = 

OBJECT_NAME    = KUIPER-00203
OBJECT_ID      = 2026-030K
CENTER_NAME    = EARTH
REF_FRAME      = TEME
TIME_SYSTEM    = UTC
MEAN_ELEMENT_THEORY = SGP/SGP4

EPOCH          = 2026-03-05T20:00:00.999360
MEAN_MOTION    = 15.22658852
ECCENTRICITY   = .0011478
INCLINATION    = 51.8819
RA_OF_ASC_NODE = 238.2396
ARG_OF_PERICENTER = 47.6304
MEAN_ANOMALY   = 276.6812

EPHEMERIS_TYPE = 0
CLASSIFICATION_TYPE = U
NORAD_CAT_ID   = 67773
ELEMENT_SET_NO = 999
REV_AT_EPOCH   = 306
BSTAR          = -.61264E-1
MEAN_MOTION_DOT = -.1321904E-1
MEAN_MOTION_DDOT = 0

CCSDS_OMM_VERS = 2.0
CREATION_DATE  = 
ORIGINATOR     = 

OBJECT_NAME    = KUIPER-00205
OBJECT_ID      = 2026-030L
CENTER_NAME    = EARTH
REF_FRAME      = TEME
TIME_SYSTEM    = UTC
MEAN_ELEMENT_THEORY = SGP/SGP4

EPOCH          = 2026-03-05T18:49:38.329824
MEAN_MOTION    = 15.36210653
ECCENTRICITY   = .000291
INCLINATION    = 51.8809
RA_OF_ASC_NODE = 237.8966
ARG_OF_PERICENTER = 10.4382
MEAN_ANOMALY   = 349.6664

EPHEMERIS_TYPE = 0
CLASSIFICATION_TYPE = U
NORAD_CAT_ID   = 67774
ELEMENT_SET_NO = 999
REV_AT_EPOCH   = 449
BSTAR          = .77285E-3
MEAN_MOTION_DOT = .27412E-3
MEAN_MOTION_DDOT = 0

CCSDS_OMM_VERS = 2.0
CREATION_DATE  = 
ORIGINATOR     = 

OBJECT_NAME    = KUIPER-00208
OBJECT_ID      = 2026-030M
CENTER_NAME    = EARTH
REF_FRAME      = TEME
TIME_SYSTEM    = UTC
MEAN_ELEMENT_THEORY = SGP/SGP4

EPOCH          = 2026-03-05T18:13:02.503200
MEAN_MOTION    = 15.32378848
ECCENTRICITY   = .0014598
INCLINATION    = 51.8832
RA_OF_ASC_NODE = 238.4719
ARG_OF_PERICENTER = 49.5668
MEAN_ANOMALY   = 310.6588

EPHEMERIS_TYPE = 0
CLASSIFICATION_TYPE = U
NORAD_CAT_ID   = 67775
ELEMENT_SET_NO = 999
REV_AT_EPOCH   = 448
BSTAR          = .11804E-2
MEAN_MOTION_DOT = .37381E-3
MEAN_MOTION_DDOT = 0

CCSDS_OMM_VERS = 2.0
CREATION_DATE  = 
ORIGINATOR     = 

OBJECT_NAME    = KUIPER-00209
OBJECT_ID      = 2026-030N
CENTER_NAME    = EARTH
REF_FRAME      = TEME
TIME_SYSTEM    = UTC
MEAN_ELEMENT_THEORY = SGP/SGP4

EPOCH          = 2026-03-05T20:00:00.999360
MEAN_MOTION    = 15.30440122
ECCENTRICITY   = .0013055
INCLINATION    = 51.8821
RA_OF_ASC_NODE = 238.1783
ARG_OF_PERICENTER = 57.1184
MEAN_ANOMALY   = 321.2066

EPHEMERIS_TYPE = 0
CLASSIFICATION_TYPE = U
NORAD_CAT_ID   = 67776
ELEMENT_SET_NO = 999
REV_AT_EPOCH   = 389
BSTAR          = -.74769E-2
MEAN_MOTION_DOT = -.217988E-2
MEAN_MOTION_DDOT = 0

CCSDS_OMM_VERS = 2.0
CREATION_DATE  = 
ORIGINATOR     = 

OBJECT_NAME    = KUIPER-00213
OBJECT_ID      = 2026-030P
CENTER_NAME    = EARTH
REF_FRAME      = TEME
TIME_SYSTEM    = UTC
MEAN_ELEMENT_THEORY = SGP/SGP4

EPOCH          = 2026-03-05T18:13:57.559008
MEAN_MOTION    = 15.32579732
ECCENTRICITY   = .0014887
INCLINATION    = 51.8805
RA_OF_ASC_NODE = 238.4668
ARG_OF_PERICENTER = 53.4630
MEAN_ANOMALY   = 306.7723

EPHEMERIS_TYPE = 0
CLASSIFICATION_TYPE = U
NORAD_CAT_ID   = 67777
ELEMENT_SET_NO = 999
REV_AT_EPOCH   = 448
BSTAR          = .72412E-3
MEAN_MOTION_DOT = .22891E-3
MEAN_MOTION_DDOT = 0

